[
    {
        "Altitude(m)": 568777.2983500701,
        "Argument of Periapsis(deg)": -0.007534386927657468,
        "Eccentricity": 0.0,
        "Inclination(deg)": 97.0,
        "Latitude(deg)": -11.979588263774986,
        "Longitude(deg)": 107.75411972121958,
        "Mean Anomaly(deg)": 191.88404775639583,
        "RAAN(deg)": 30.00198235120617,
        "Satellite Name": "Starlink Shell 3 1671",
        "Satellite Number": 1671,
        "Semi-Major Axis(m)": 6938478.169268562,
        "Time(s)": 190
    },
    {
        "Altitude(m)": 568938.3730384745,
        "Argument of Periapsis(deg)": -0.007930933608060494,
        "Eccentricity": 0.0,
        "Inclination(deg)": 97.0,
        "Latitude(deg)": -12.603112888256407,
        "Longitude(deg)": 107.63265831693579,
        "Mean Anomaly(deg)": 192.50952395410087,
        "RAAN(deg)": 30.002086685480176,
        "Satellite Name": "Starlink Shell 3 1671",
        "Satellite Number": 1671,
        "Semi-Major Axis(m)": 6938478.169268562,
        "Time(s)": 200
    },
    {
        "Altitude(m)": 569103.1266627377,
        "Argument of Periapsis(deg)": -0.008327480288463517,
        "Eccentricity": 0.0,
        "Inclination(deg)": 97.0,
        "Latitude(deg)": -13.226562621370906,
        "Longitude(deg)": 107.51081443272061,
        "Mean Anomaly(deg)": 193.13500015180594,
        "RAAN(deg)": 30.002191019754186,
        "Satellite Name": "Starlink Shell 3 1671",
        "Satellite Number": 1671,
        "Semi-Major Axis(m)": 6938478.169268562,
        "Time(s)": 210
    },
    {
        "Altitude(m)": 569271.5081436917,
        "Argument of Periapsis(deg)": -0.008724026968866542,
        "Eccentricity": 0.0,
        "Inclination(deg)": 97.0,
        "Latitude(deg)": -13.849934477747237,
        "Longitude(deg)": 107.38856624618282,
        "Mean Anomaly(deg)": 193.76047634951098,
        "RAAN(deg)": 30.002295354028195,
        "Satellite Name": "Starlink Shell 3 1671",
        "Satellite Number": 1671,
        "Semi-Major Axis(m)": 6938478.169268562,
        "Time(s)": 220
    },
    {
        "Altitude(m)": 569443.4645898772,
        "Argument of Periapsis(deg)": -0.009120573649269567,
        "Eccentricity": 0.0,
        "Inclination(deg)": 97.0,
        "Latitude(deg)": -14.473225468414595,
        "Longitude(deg)": 107.26589152964057,
        "Mean Anomaly(deg)": 194.38595254721602,
        "RAAN(deg)": 30.0023996883022,
        "Satellite Name": "Starlink Shell 3 1671",
        "Satellite Number": 1671,
        "Semi-Major Axis(m)": 6938478.169268562,
        "Time(s)": 230
    },
    {
        "Altitude(m)": 569618.9413209701,
        "Argument of Periapsis(deg)": -0.009517120329672592,
        "Eccentricity": 0.0,
        "Inclination(deg)": 97.0,
        "Latitude(deg)": -15.096432600058595,
        "Longitude(deg)": 107.14276812912159,
        "Mean Anomaly(deg)": 195.01142874492106,
        "RAAN(deg)": 30.00250402257621,
        "Satellite Name": "Starlink Shell 3 1671",
        "Satellite Number": 1671,
        "Semi-Major Axis(m)": 6938478.169268562,
        "Time(s)": 240
    },
    {
        "Altitude(m)": 569797.881892046,
        "Argument of Periapsis(deg)": -0.009913667010075618,
        "Eccentricity": 0.0,
        "Inclination(deg)": 97.0,
        "Latitude(deg)": -15.719552874206528,
        "Longitude(deg)": 107.01917292955012,
        "Mean Anomaly(deg)": 195.6369049426261,
        "RAAN(deg)": 30.002608356850217,
        "Satellite Name": "Starlink Shell 3 1671",
        "Satellite Number": 1671,
        "Semi-Major Axis(m)": 6938478.169268562,
        "Time(s)": 250
    },
    {
        "Altitude(m)": 569980.2281187319,
        "Argument of Periapsis(deg)": -0.010310213690478642,
        "Eccentricity": 0.0,
        "Inclination(deg)": 97.0,
        "Latitude(deg)": -16.342583286338318,
        "Longitude(deg)": 106.89508233179865,
        "Mean Anomaly(deg)": 196.26238114033114,
        "RAAN(deg)": 30.002712691124227,
        "Satellite Name": "Starlink Shell 3 1671",
        "Satellite Number": 1671,
        "Semi-Major Axis(m)": 6938478.169268562,
        "Time(s)": 260
    },
    {
        "Altitude(m)": 570165.9201032135,
        "Argument of Periapsis(deg)": -0.010706760370881667,
        "Eccentricity": 0.0,
        "Inclination(deg)": 97.0,
        "Latitude(deg)": -16.965520824917455,
        "Longitude(deg)": 106.77047272866054,
        "Mean Anomaly(deg)": 196.8878573380362,
        "RAAN(deg)": 30.002817025398244,
        "Satellite Name": "Starlink Shell 3 1671",
        "Satellite Number": 1671,
        "Semi-Major Axis(m)": 6938478.169268562,
        "Time(s)": 270
    },
    {
        "Altitude(m)": 570354.8962611045,
        "Argument of Periapsis(deg)": -0.011103307051284692,
        "Eccentricity": 0.0,
        "Inclination(deg)": 97.0,
        "Latitude(deg)": -17.58836247033691,
        "Longitude(deg)": 106.64531946679641,
        "Mean Anomaly(deg)": 197.51333353574125,
        "RAAN(deg)": 30.00292135967225,
        "Satellite Name": "Starlink Shell 3 1671",
        "Satellite Number": 1671,
        "Semi-Major Axis(m)": 6938478.169268562,
        "Time(s)": 280
    },
    {
        "Altitude(m)": 570547.0933491342,
        "Argument of Periapsis(deg)": -0.011499853731687715,
        "Eccentricity": 0.0,
        "Inclination(deg)": 97.0,
        "Latitude(deg)": -18.211105193775243,
        "Longitude(deg)": 106.51959732031902,
        "Mean Anomaly(deg)": 198.13880973344627,
        "RAAN(deg)": 30.00302569394626,
        "Satellite Name": "Starlink Shell 3 1671",
        "Satellite Number": 1671,
        "Semi-Major Axis(m)": 6938478.169268562,
        "Time(s)": 290
    },
    {
        "Altitude(m)": 570742.4464936383,
        "Argument of Periapsis(deg)": -0.011896400412090741,
        "Eccentricity": 0.0,
        "Inclination(deg)": 97.0,
        "Latitude(deg)": -18.83374595595682,
        "Longitude(deg)": 106.39328096305977,
        "Mean Anomaly(deg)": 198.7642859311513,
        "RAAN(deg)": 30.00313002822027,
        "Satellite Name": "Starlink Shell 3 1671",
        "Satellite Number": 1671,
        "Semi-Major Axis(m)": 6938478.169268562,
        "Time(s)": 300
    },
    {
        "Altitude(m)": 570940.8892198654,
        "Argument of Periapsis(deg)": -0.012292947092493765,
        "Eccentricity": 0.0,
        "Inclination(deg)": 97.0,
        "Latitude(deg)": -19.45628170580954,
        "Longitude(deg)": 106.26634392655451,
        "Mean Anomaly(deg)": 199.38976212885638,
        "RAAN(deg)": 30.003234362494275,
        "Satellite Name": "Starlink Shell 3 1671",
        "Satellite Number": 1671,
        "Semi-Major Axis(m)": 6938478.169268562,
        "Time(s)": 310
    },
    {
        "Altitude(m)": 571142.3534820672,
        "Argument of Periapsis(deg)": -0.012689493772896788,
        "Eccentricity": 0.0,
        "Inclination(deg)": 97.0,
        "Latitude(deg)": -20.078709379015084,
        "Longitude(deg)": 106.13875906939772,
        "Mean Anomaly(deg)": 200.01523832656144,
        "RAAN(deg)": 30.003338696768285,
        "Satellite Name": "Starlink Shell 3 1671",
        "Satellite Number": 1671,
        "Semi-Major Axis(m)": 6938478.169268562,
        "Time(s)": 320
    },
    {
        "Altitude(m)": 571346.7696943275,
        "Argument of Periapsis(deg)": -0.013086040453299813,
        "Eccentricity": 0.0,
        "Inclination(deg)": 97.0,
        "Latitude(deg)": -20.70102589644404,
        "Longitude(deg)": 106.01049904499006,
        "Mean Anomaly(deg)": 200.6407145242664,
        "RAAN(deg)": 30.003443031042295,
        "Satellite Name": "Starlink Shell 3 1671",
        "Satellite Number": 1671,
        "Semi-Major Axis(m)": 6938478.169268562,
        "Time(s)": 330
    },
    {
        "Altitude(m)": 571554.0667621633,
        "Argument of Periapsis(deg)": -0.01348258713370284,
        "Eccentricity": 0.0,
        "Inclination(deg)": 97.0,
        "Latitude(deg)": -21.323228162469015,
        "Longitude(deg)": 105.88153525469947,
        "Mean Anomaly(deg)": 201.26619072197144,
        "RAAN(deg)": 30.0035473653163,
        "Satellite Name": "Starlink Shell 3 1671",
        "Satellite Number": 1671,
        "Semi-Major Axis(m)": 6938478.169268562,
        "Time(s)": 340
    },
    {
        "Altitude(m)": 571764.1721148422,
        "Argument of Periapsis(deg)": -0.013879133814105863,
        "Eccentricity": 0.0,
        "Inclination(deg)": 97.0,
        "Latitude(deg)": -21.94531306314726,
        "Longitude(deg)": 105.75183831206324,
        "Mean Anomaly(deg)": 201.89166691967657,
        "RAAN(deg)": 30.00365169959031,
        "Satellite Name": "Starlink Shell 3 1671",
        "Satellite Number": 1671,
        "Semi-Major Axis(m)": 6938478.169268562,
        "Time(s)": 350
    },
    {
        "Altitude(m)": 571977.0117384149,
        "Argument of Periapsis(deg)": -0.01427568049450889,
        "Eccentricity": 0.0,
        "Inclination(deg)": 97.0,
        "Latitude(deg)": -22.567277464266983,
        "Longitude(deg)": 105.62137850503524,
        "Mean Anomaly(deg)": 202.5171431173816,
        "RAAN(deg)": 30.00375603386432,
        "Satellite Name": "Starlink Shell 3 1671",
        "Satellite Number": 1671,
        "Semi-Major Axis(m)": 6938478.169268562,
        "Time(s)": 360
    },
    {
        "Altitude(m)": 572192.5102094442,
        "Argument of Periapsis(deg)": -0.014672227174911913,
        "Eccentricity": 0.0,
        "Inclination(deg)": 97.0,
        "Latitude(deg)": -23.18911820924616,
        "Longitude(deg)": 105.49012474327343,
        "Mean Anomaly(deg)": 203.14261931508668,
        "RAAN(deg)": 30.003860368138326,
        "Satellite Name": "Starlink Shell 3 1671",
        "Satellite Number": 1671,
        "Semi-Major Axis(m)": 6938478.169268562,
        "Time(s)": 370
    }
]